{
  "type": "FeatureCollection",
  "features": [
    {
      "type": "Feature",
      "properties": {
        "norad_id": 66543,
        "name": "STARLINK-35315",
        "group": "last-30-days",
        "lat": -40.16250541847675,
        "lon": -7.342453033994801,
        "alt_km": 346.8023839403586,
        "timestamp": "2025-12-03T15:48:01.920031+00:00",
        "meta_object_name": "STARLINK-35315",
        "meta_object_id": "2025-265AD",
        "meta_epoch": "2025-12-03T06:00:02.999808",
        "meta_mean_motion": 15.75060877,
        "meta_eccentricity": 0.00015304,
        "meta_inclination": 43.0001,
        "meta_ra_of_asc_node": 110.2207,
        "meta_arg_of_pericenter": 267.2709,
        "meta_mean_anomaly": 185.7199,
        "meta_ephemeris_type": 0,
        "meta_classification_type": "U",
        "meta_norad_cat_id": 66543,
        "meta_element_set_no": 999,
        "meta_rev_at_epoch": 336,
        "meta_bstar": -0.00024414186,
        "meta_mean_motion_dot": -0.00037847,
        "meta_mean_motion_ddot": 0,
        "tle_line1": "1 66543U 25265AD  25337.25003472 -.00037847  00000+0 -24414-3 0  9995",
        "tle_line2": "2 66543  43.0001 110.2207 0001530 267.2709 185.7199 15.75060877  3367"
      },
      "geometry": {
        "type": "Point",
        "coordinates": [
          -7.342453033994801,
          -40.16250541847675
        ]
      }
    },
    {
      "type": "Feature",
      "properties": {
        "norad_id": 66544,
        "name": "STARLINK-35728",
        "group": "last-30-days",
        "lat": -40.69285041338676,
        "lon": -4.918281084574735,
        "alt_km": 346.5725203883967,
        "timestamp": "2025-12-03T15:48:01.920040+00:00",
        "meta_object_name": "STARLINK-35728",
        "meta_object_id": "2025-265AE",
        "meta_epoch": "2025-12-03T06:00:02.999808",
        "meta_mean_motion": 15.75030255,
        "meta_eccentricity": 0.00017293,
        "meta_inclination": 42.9998,
        "meta_ra_of_asc_node": 110.2162,
        "meta_arg_of_pericenter": 258.5944,
        "meta_mean_anomaly": 196.3205,
        "meta_ephemeris_type": 0,
        "meta_classification_type": "U",
        "meta_norad_cat_id": 66544,
        "meta_element_set_no": 999,
        "meta_rev_at_epoch": 347,
        "meta_bstar": 0.00023725008,
        "meta_mean_motion_dot": 0.00036108,
        "meta_mean_motion_ddot": 0,
        "tle_line1": "1 66544U 25265AE  25337.25003472  .00036108  00000+0  23725-3 0  9997",
        "tle_line2": "2 66544  42.9998 110.2162 0001729 258.5944 196.3205 15.75030255  3470"
      },
      "geometry": {
        "type": "Point",
        "coordinates": [
          -4.918281084574735,
          -40.69285041338676
        ]
      }
    },
    {
      "type": "Feature",
      "properties": {
        "norad_id": 66545,
        "name": "SHIJIAN-30A",
        "group": "last-30-days",
        "lat": 6.830787564645437,
        "lon": 20.814371681502347,
        "alt_km": 513.4782772237832,
        "timestamp": "2025-12-03T15:48:01.920049+00:00",
        "meta_object_name": "SHIJIAN-30A",
        "meta_object_id": "2025-266A",
        "meta_epoch": "2025-12-03T07:50:53.891232",
        "meta_mean_motion": 15.1533332,
        "meta_eccentricity": 0.00127813,
        "meta_inclination": 51.7997,
        "meta_ra_of_asc_node": 16.9539,
        "meta_arg_of_pericenter": 322.9563,
        "meta_mean_anomaly": 37.053,
        "meta_ephemeris_type": 0,
        "meta_classification_type": "U",
        "meta_norad_cat_id": 66545,
        "meta_element_set_no": 999,
        "meta_rev_at_epoch": 215,
        "meta_bstar": 0.00082114166,
        "meta_mean_motion_dot": 0.00015425,
        "meta_mean_motion_ddot": 0,
        "tle_line1": "1 66545U 25266A   25337.32701263  .00015425  00000+0  82114-3 0  9996",
        "tle_line2": "2 66545  51.7997  16.9539 0012781 322.9563  37.0530 15.15333320  2150"
      },
      "geometry": {
        "type": "Point",
        "coordinates": [
          20.814371681502347,
          6.830787564645437
        ]
      }
    },
    {
      "type": "Feature",
      "properties": {
        "norad_id": 66546,
        "name": "SHIJIAN-30B",
        "group": "last-30-days",
        "lat": 2.627705691540783,
        "lon": 17.481940596906657,
        "alt_km": 514.335440544045,
        "timestamp": "2025-12-03T15:48:01.920058+00:00",
        "meta_object_name": "SHIJIAN-30B",
        "meta_object_id": "2025-266B",
        "meta_epoch": "2025-12-03T07:52:19.741728",
        "meta_mean_motion": 15.15394993,
        "meta_eccentricity": 0.0010449,
        "meta_inclination": 51.798,
        "meta_ra_of_asc_node": 16.9585,
        "meta_arg_of_pericenter": 325.9527,
        "meta_mean_anomaly": 34.0778,
        "meta_ephemeris_type": 0,
        "meta_classification_type": "U",
        "meta_norad_cat_id": 66546,
        "meta_element_set_no": 999,
        "meta_rev_at_epoch": 215,
        "meta_bstar": 0.00094392173,
        "meta_mean_motion_dot": 0.00017805,
        "meta_mean_motion_ddot": 0,
        "tle_line1": "1 66546U 25266B   25337.32800627  .00017805  00000+0  94392-3 0  9996",
        "tle_line2": "2 66546  51.7980  16.9585 0010449 325.9527  34.0778 15.15394993  2150"
      },
      "geometry": {
        "type": "Point",
        "coordinates": [
          17.481940596906657,
          2.627705691540783
        ]
      }
    },
    {
      "type": "Feature",
      "properties": {
        "norad_id": 66547,
        "name": "SHIJIAN-30C",
        "group": "last-30-days",
        "lat": -0.5847320941085798,
        "lon": 14.95915301183498,
        "alt_km": 514.4697510737342,
        "timestamp": "2025-12-03T15:48:01.920067+00:00",
        "meta_object_name": "SHIJIAN-30C",
        "meta_object_id": "2025-266C",
        "meta_epoch": "2025-12-03T06:18:27.269568",
        "meta_mean_motion": 15.15429773,
        "meta_eccentricity": 0.00113477,
        "meta_inclination": 51.7991,
        "meta_ra_of_asc_node": 17.273,
        "meta_arg_of_pericenter": 317.9117,
        "meta_mean_anomaly": 42.0987,
        "meta_ephemeris_type": 0,
        "meta_classification_type": "U",
        "meta_norad_cat_id": 66547,
        "meta_element_set_no": 999,
        "meta_rev_at_epoch": 214,
        "meta_bstar": 0.00080704371,
        "meta_mean_motion_dot": 0.00015191,
        "meta_mean_motion_ddot": 0,
        "tle_line1": "1 66547U 25266C   25337.26281562  .00015191  00000+0  80704-3 0  9999",
        "tle_line2": "2 66547  51.7991  17.2730 0011347 317.9117  42.0987 15.15429773  2148"
      },
      "geometry": {
        "type": "Point",
        "coordinates": [
          14.95915301183498,
          -0.5847320941085798
        ]
      }
    },
    {
      "type": "Feature",
      "properties": {
        "norad_id": 66548,
        "name": "CZ-2C R/B",
        "group": "last-30-days",
        "lat": 21.403748442809533,
        "lon": 32.34509494524427,
        "alt_km": 497.55920048533335,
        "timestamp": "2025-12-03T15:48:01.920078+00:00",
        "meta_object_name": "CZ-2C R/B",
        "meta_object_id": "2025-266D",
        "meta_epoch": "2025-12-03T07:50:25.266912",
        "meta_mean_motion": 15.29849404,
        "meta_eccentricity": 0.00847603,
        "meta_inclination": 52.0553,
        "meta_ra_of_asc_node": 16.1159,
        "meta_arg_of_pericenter": 141.0444,
        "meta_mean_anomaly": 219.669,
        "meta_ephemeris_type": 0,
        "meta_classification_type": "U",
        "meta_norad_cat_id": 66548,
        "meta_element_set_no": 999,
        "meta_rev_at_epoch": 217,
        "meta_bstar": 0.00050836487,
        "meta_mean_motion_dot": 0.00016269,
        "meta_mean_motion_ddot": 0,
        "tle_line1": "1 66548U 25266D   25337.32668133  .00016269  00000+0  50836-3 0  9990",
        "tle_line2": "2 66548  52.0553  16.1159 0084760 141.0444 219.6690 15.29849404  2176"
      },
      "geometry": {
        "type": "Point",
        "coordinates": [
          32.34509494524427,
          21.403748442809533
        ]
      }
    },
    {
      "type": "Feature",
      "properties": {
        "norad_id": 66549,
        "name": "SHIJIAN-28",
        "group": "last-30-days",
        "lat": -9.761340530457723,
        "lon": -127.57969243665904,
        "alt_km": 17403.080641535857,
        "timestamp": "2025-12-03T15:48:01.920090+00:00",
        "meta_object_name": "SHIJIAN-28",
        "meta_object_id": "2025-277A",
        "meta_epoch": "2025-11-30T18:06:43.124256",
        "meta_mean_motion": 2.28019775,
        "meta_eccentricity": 0.7300519,
        "meta_inclination": 14.4344,
        "meta_ra_of_asc_node": 275.4056,
        "meta_arg_of_pericenter": 179.5026,
        "meta_mean_anomaly": 182.358,
        "meta_ephemeris_type": 0,
        "meta_classification_type": "U",
        "meta_norad_cat_id": 66549,
        "meta_element_set_no": 999,
        "meta_rev_at_epoch": 4,
        "meta_bstar": 0.00062085,
        "meta_mean_motion_dot": 6.315e-05,
        "meta_mean_motion_ddot": 0,
        "tle_line1": "1 66549U 25277A   25334.75466579  .00006315  00000+0  62085-3 0  9997",
        "tle_line2": "2 66549  14.4344 275.4056 7300519 179.5026 182.3580  2.28019775    48"
      },
      "geometry": {
        "type": "Point",
        "coordinates": [
          -127.57969243665904,
          -9.761340530457723
        ]
      }
    }
  ]
}